IRIDIUM 39              
1 25042U 97069D   26004.31222263  .00001236  00000+0  31647-3 0  9992
2 25042  86.3935 124.9523 0017476   1.1601 358.9640 14.49548328478090
IRIDIUM 38              
1 25043U 97069E   26003.89215773  .00000894  00000+0  28720-3 0  9990
2 25043  86.3990 148.7939 0003253 126.6001 233.5496 14.38341985474802
IRIDIUM 42              
1 25077U 97077A   26003.93680545  .00000777  00000+0  25808-3 0  9998
2 25077  86.3994 155.1908 0002181 113.9225 246.2200 14.36557335470016
IRIDIUM 44              
1 25078U 97077B   26004.32149757  .00000713  00000+0  21812-3 0  9999
2 25078  86.3988 136.4273 0003897  90.3638 269.8008 14.40456186472654
IRIDIUM 45              
1 25104U 97082A   26004.27504448  .00035912  00000+0  98107-3 0  9991
2 25104  86.3552 309.5596 0091751 294.2878  64.8809 15.33000756482721
IRIDIUM 24              
1 25105U 97082B   26004.24129773  .00000857  00000+0  25311-3 0  9990
2 25105  86.3912 355.0027 0012949 126.8137 233.4254 14.42355896472192
IRIDIUM 51              
1 25262U 98018A   26004.28874942  .00138318  00000+0  11856-2 0  9995
2 25262  86.3731 314.6232 0046922 177.0788 183.0765 15.67516410478172
IRIDIUM 57              
1 25273U 98019B   26004.20878790  .00000551  00000+0  18283-3 0  9994
2 25273  86.3937  60.9635 0002286  95.9071 264.2387 14.36071252453639
